{"type": "FeatureCollection", "bbox": [-95.615, 29.6, -95.255, 29.88], "features": [{"type": "Feature", "properties": {"kind": "bayou", "name": "Buffalo Bayou"}, "geometry": {"type": "LineString", "coordinates": [[-95.615, 29.766], [-95.52, 29.76], [-95.46, 29.7648], [-95.4255, 29.7622], [-95.3995, 29.7635], [-95.377, 29.7608], [-95.36, 29.7545], [-95.343, 29.7505], [-95.32, 29.748], [-95.255, 29.7455]]}}, {"type": "Feature", "properties": {"kind": "bayou", "name": "White Oak Bayou"}, "geometry": {"type": "LineString", "coordinates": [[-95.472, 29.876], [-95.434, 29.8035], [-95.415, 29.788], [-95.399, 29.776], [-95.383, 29.766]]}}, {"type": "Feature", "properties": {"kind": "bayou", "name": "Brays Bayou"}, "geometry": {"type": "LineString", "coordinates": [[-95.615, 29.676], [-95.5, 29.69], [-95.452, 29.698], [-95.405, 29.706], [-95.362, 29.708], [-95.32, 29.716], [-95.255, 29.724]]}}, {"type": "Feature", "properties": {"kind": "loop", "name": "610 Loop"}, "geometry": {"type": "LineString", "coordinates": [[-95.464, 29.733], [-95.463, 29.772], [-95.456, 29.796], [-95.434, 29.811], [-95.398, 29.8155], [-95.356, 29.815], [-95.318, 29.806], [-95.298, 29.783], [-95.294, 29.748], [-95.299, 29.713], [-95.318, 29.687], [-95.356, 29.674], [-95.398, 29.672], [-95.433, 29.679], [-95.456, 29.697], [-95.464, 29.718], [-95.464, 29.733]]}}, {"type": "Feature", "properties": {"kind": "neighborhood", "name": "Downtown"}, "geometry": {"type": "Point", "coordinates": [-95.366, 29.761]}}, {"type": "Feature", "properties": {"kind": "neighborhood", "name": "The Heights"}, "geometry": {"type": "Point", "coordinates": [-95.411, 29.7955]}}, {"type": "Feature", "properties": {"kind": "neighborhood", "name": "Montrose"}, "geometry": {"type": "Point", "coordinates": [-95.3985, 29.7385]}}, {"type": "Feature", "properties": {"kind": "neighborhood", "name": "Midtown"}, "geometry": {"type": "Point", "coordinates": [-95.374, 29.7395]}}, {"type": "Feature", "properties": {"kind": "neighborhood", "name": "EaDo"}, "geometry": {"type": "Point", "coordinates": [-95.342, 29.746]}}, {"type": "Feature", "properties": {"kind": "neighborhood", "name": "Rice Village"}, "geometry": {"type": "Point", "coordinates": [-95.429, 29.714]}}, {"type": "Feature", "properties": {"kind": "neighborhood", "name": "Museum District"}, "geometry": {"type": "Point", "coordinates": [-95.396, 29.7215]}}, {"type": "Feature", "properties": {"kind": "neighborhood", "name": "Third Ward"}, "geometry": {"type": "Point", "coordinates": [-95.353, 29.7235]}}, {"type": "Feature", "properties": {"kind": "neighborhood", "name": "Galleria"}, "geometry": {"type": "Point", "coordinates": [-95.474, 29.744]}}, {"type": "Feature", "properties": {"kind": "neighborhood", "name": "Spring Branch"}, "geometry": {"type": "Point", "coordinates": [-95.503, 29.804]}}, {"type": "Feature", "properties": {"kind": "neighborhood", "name": "Bellaire"}, "geometry": {"type": "Point", "coordinates": [-95.468, 29.7]}}, {"type": "Feature", "properties": {"kind": "neighborhood", "name": "Sharpstown"}, "geometry": {"type": "Point", "coordinates": [-95.532, 29.696]}}, {"type": "Feature", "properties": {"kind": "neighborhood", "name": "Garden Oaks"}, "geometry": {"type": "Point", "coordinates": [-95.423, 29.822]}}, {"type": "Feature", "properties": {"kind": "neighborhood", "name": "Sunnyside"}, "geometry": {"type": "Point", "coordinates": [-95.372, 29.67]}}, {"type": "Feature", "properties": {"kind": "neighborhood", "name": "Denver Harbor"}, "geometry": {"type": "Point", "coordinates": [-95.308, 29.781]}}]}